{
  "type": "FeatureCollection",
  "features": [
    {
      "type": "Feature",
      "geometry": {
        "type": "Point",
        "coordinates": [
          12.454619396323755,
          41.90257149775495
        ]
      },
      "properties": {
        "name": "Capilla Sixtina - Acceso Sur",
        "title": "Entrada Principal a la Capilla Sixtina",
        "category": "monumento",
        "latitude": 41.90257149775495,
        "longitude": 12.454619396323755,
        "city": "Ciudad del Vaticano",
        "country": "Ciudad del Vaticano",
        "address": "Cortile delle Corazze, 00120 Città del Vaticano",
        "date": "2023-10-14 10:30",
        "id": "REF-0001",
        "groundedFromAnchor": "Capilla Sixtina",
        "computedScore": 85,
        "h3Index": "891e80505c7ffff"
      }
    },
    {
      "type": "Feature",
      "geometry": {
        "type": "Point",
        "coordinates": [
          12.45437978549888,
          41.90271932344739
        ]
      },
      "properties": {
        "name": "Museos Vaticanos - Pasillo de la Bóveda Sixtina",
        "title": "Nave Central de la Capilla Sixtina",
        "category": "monumento",
        "latitude": 41.90271932344739,
        "longitude": 12.45437978549888,
        "city": "Ciudad del Vaticano",
        "country": "Ciudad del Vaticano",
        "address": "Cappella Sistina, Viale Vaticano, 00120 Città del Vaticano",
        "date": "2023-10-14 11:15",
        "id": "REF-0002",
        "groundedFromAnchor": "Capilla Sixtina",
        "computedScore": 80,
        "h3Index": "891e80505c7ffff"
      }
    },
    {
      "type": "Feature",
      "geometry": {
        "type": "Point",
        "coordinates": [
          12.454456029526524,
          41.90301909373595
        ]
      },
      "properties": {
        "name": "El Juicio Final - Muro del Altar",
        "title": "Fresco del Juicio Final de Miguel Ángel",
        "category": "monumento",
        "latitude": 41.90301909373595,
        "longitude": 12.454456029526524,
        "city": "Ciudad del Vaticano",
        "country": "Ciudad del Vaticano",
        "address": "Muro del Altar, Capilla Sixtina, 00120 Città del Vaticano",
        "date": "2023-10-14 12:00",
        "id": "REF-0003",
        "groundedFromAnchor": "Capilla Sixtina",
        "computedScore": 78,
        "h3Index": "891e80505c7ffff"
      }
    },
    {
      "type": "Feature",
      "geometry": {
        "type": "Point",
        "coordinates": [
          12.454433446033601,
          41.902705953991884
        ]
      },
      "properties": {
        "name": "Capilla Sixtina - Muro Lateral de Botticelli",
        "title": "Frescos Laterales de Perugino y Botticelli",
        "category": "actividad",
        "latitude": 41.902705953991884,
        "longitude": 12.454433446033601,
        "city": "Ciudad del Vaticano",
        "country": "Ciudad del Vaticano",
        "address": "Pared Sur, Capilla Sixtina, 00120 Città del Vaticano",
        "date": "2023-10-14 14:20",
        "id": "REF-0004",
        "groundedFromAnchor": "Capilla Sixtina",
        "computedScore": 81,
        "h3Index": "891e80505c7ffff"
      }
    },
    {
      "type": "Feature",
      "geometry": {
        "type": "Point",
        "coordinates": [
          12.454795966864207,
          41.90301540858057
        ]
      },
      "properties": {
        "name": "Sala Regia - Conexión Capilla Sixtina",
        "title": "Vestíbulo de la Sala Regia",
        "category": "monumento",
        "latitude": 41.90301540858057,
        "longitude": 12.454795966864207,
        "city": "Ciudad del Vaticano",
        "country": "Ciudad del Vaticano",
        "address": "Palacio Apostólico, 00120 Città del Vaticano",
        "date": "2023-10-14 15:45",
        "id": "REF-0005",
        "groundedFromAnchor": "Capilla Sixtina",
        "computedScore": 85,
        "h3Index": "891e80505c7ffff"
      }
    },
    {
      "type": "Feature",
      "geometry": {
        "type": "Point",
        "coordinates": [
          12.454592627312794,
          41.90283167512716
        ]
      },
      "properties": {
        "name": "Capilla Sixtina - Bóveda Central",
        "title": "Interior Bóveda Miguel Ángel",
        "category": "monumento",
        "latitude": 41.90283167512716,
        "longitude": 12.454592627312794,
        "city": "Ciudad del Vaticano",
        "country": "Ciudad del Vaticano",
        "address": "00120 Ciudad del Vaticano",
        "date": "2023-10-15 10:15",
        "id": "REF-0006",
        "groundedFromAnchor": "Capilla Sixtina",
        "computedScore": 82,
        "h3Index": "891e80505c7ffff"
      }
    },
    {
      "type": "Feature",
      "geometry": {
        "type": "Point",
        "coordinates": [
          12.454203013306193,
          41.902723209053896
        ]
      },
      "properties": {
        "name": "Museos Vaticanos - Sala de los Tapices",
        "title": "Acceso Suroeste a Capilla Sixtina",
        "category": "monumento",
        "latitude": 41.902723209053896,
        "longitude": 12.454203013306193,
        "city": "Ciudad del Vaticano",
        "country": "Ciudad del Vaticano",
        "address": "Viale Vaticano, 00120 Ciudad del Vaticano",
        "date": "2023-10-15 10:22",
        "id": "REF-0007",
        "groundedFromAnchor": "Capilla Sixtina",
        "computedScore": 98,
        "h3Index": "891e80505c7ffff"
      }
    },
    {
      "type": "Feature",
      "geometry": {
        "type": "Point",
        "coordinates": [
          12.454368701591664,
          41.902972119686495
        ]
      },
      "properties": {
        "name": "Capilla Sixtina - Muro del Juicio Final",
        "title": "Muro del Altar Mayor",
        "category": "monumento",
        "latitude": 41.902972119686495,
        "longitude": 12.454368701591664,
        "city": "Ciudad del Vaticano",
        "country": "Ciudad del Vaticano",
        "address": "Cortile del Belvedere, 00120 Ciudad del Vaticano",
        "date": "2023-10-15 10:30",
        "id": "REF-0008",
        "groundedFromAnchor": "Capilla Sixtina",
        "computedScore": 80,
        "h3Index": "891e80505c7ffff"
      }
    },
    {
      "type": "Feature",
      "geometry": {
        "type": "Point",
        "coordinates": [
          12.45471224381996,
          41.903209719881325
        ]
      },
      "properties": {
        "name": "Estancias de Rafael - Sala de la Signatura",
        "title": "Acceso Noreste Palacio Apostólico",
        "category": "actividad",
        "latitude": 41.903209719881325,
        "longitude": 12.45471224381996,
        "city": "Ciudad del Vaticano",
        "country": "Ciudad del Vaticano",
        "address": "Palacio Apostólico, 00120 Ciudad del Vaticano",
        "date": "2023-10-15 10:45",
        "id": "REF-0009",
        "groundedFromAnchor": "Capilla Sixtina",
        "computedScore": 113,
        "h3Index": "891e80505c7ffff"
      }
    },
    {
      "type": "Feature",
      "geometry": {
        "type": "Point",
        "coordinates": [
          12.454857938387786,
          41.90280804807546
        ]
      },
      "properties": {
        "name": "Sala Regia - Acceso Vestíbulo Sixtino",
        "title": "Salón Ceremonial Vaticano",
        "category": "monumento",
        "latitude": 41.90280804807546,
        "longitude": 12.454857938387786,
        "city": "Ciudad del Vaticano",
        "country": "Ciudad del Vaticano",
        "address": "Palazzo Apostolico, 00120 Ciudad del Vaticano",
        "date": "2023-10-15 11:00",
        "id": "REF-0010",
        "groundedFromAnchor": "Capilla Sixtina",
        "computedScore": 79,
        "h3Index": "891e80505c7ffff"
      }
    },
    {
      "type": "Feature",
      "geometry": {
        "type": "Point",
        "coordinates": [
          12.454747168160822,
          41.902635170419906
        ]
      },
      "properties": {
        "name": "Capilla Sixtina - Acceso Sur",
        "title": "Entrada Principal a la Capilla Sixtina",
        "category": "monumento",
        "latitude": 41.902635170419906,
        "longitude": 12.454747168160822,
        "city": "Ciudad del Vaticano",
        "country": "Ciudad del Vaticano",
        "address": "Cortile del Pappagallo, 00120 Citta del Vaticano",
        "date": "2023-10-15 10:30",
        "id": "REF-0011",
        "groundedFromAnchor": "Capilla Sixtina",
        "computedScore": 83,
        "h3Index": "891e80505c7ffff"
      }
    },
    {
      "type": "Feature",
      "geometry": {
        "type": "Point",
        "coordinates": [
          12.454821357847923,
          41.903058689265855
        ]
      },
      "properties": {
        "name": "Galería de los Tapices - Salida Sixtina",
        "title": "Corredor de Acceso del Palacio Apostólico",
        "category": "monumento",
        "latitude": 41.903058689265855,
        "longitude": 12.454821357847923,
        "city": "Ciudad del Vaticano",
        "country": "Ciudad del Vaticano",
        "address": "Viale Vaticano, 00120 Citta del Vaticano",
        "date": "2023-10-15 11:15",
        "id": "REF-0012",
        "groundedFromAnchor": "Capilla Sixtina",
        "computedScore": 82,
        "h3Index": "891e80505c7ffff"
      }
    },
    {
      "type": "Feature",
      "geometry": {
        "type": "Point",
        "coordinates": [
          12.454661094392858,
          41.90332848745434
        ]
      },
      "properties": {
        "name": "Cortile del Belvedere - Mirador Norte Capilla",
        "title": "Patio Central con Vista al Complejo Sixtino",
        "category": "actividad",
        "latitude": 41.90332848745434,
        "longitude": 12.454661094392858,
        "city": "Ciudad del Vaticano",
        "country": "Ciudad del Vaticano",
        "address": "Cortile del Belvedere, 00120 Citta del Vaticano",
        "date": "2023-10-15 12:00",
        "id": "REF-0013",
        "groundedFromAnchor": "Capilla Sixtina",
        "computedScore": 83,
        "h3Index": "891e80505c7ffff"
      }
    },
    {
      "type": "Feature",
      "geometry": {
        "type": "Point",
        "coordinates": [
          12.454398044178763,
          41.90325381338157
        ]
      },
      "properties": {
        "name": "Capilla Paolina - Pasaje de Conexión",
        "title": "Corredor entre Capilla Paolina y Sixtina",
        "category": "monumento",
        "latitude": 41.90325381338157,
        "longitude": 12.454398044178763,
        "city": "Ciudad del Vaticano",
        "country": "Ciudad del Vaticano",
        "address": "Palazzo Apostolico, 00120 Citta del Vaticano",
        "date": "2023-10-15 14:10",
        "id": "REF-0014",
        "groundedFromAnchor": "Capilla Sixtina",
        "computedScore": 82,
        "h3Index": "891e80505c7ffff"
      }
    },
    {
      "type": "Feature",
      "geometry": {
        "type": "Point",
        "coordinates": [
          12.454733292177965,
          41.90259214527767
        ]
      },
      "properties": {
        "name": "Torre Borgia - Muro Exterior Sur",
        "title": "Base de la Torre Borgia e Inmediaciones",
        "category": "monumento",
        "latitude": 41.90259214527767,
        "longitude": 12.454733292177965,
        "city": "Ciudad del Vaticano",
        "country": "Ciudad del Vaticano",
        "address": "Cortile del Pappagallo Sur, 00120 Citta del Vaticano",
        "date": "2023-10-15 16:00",
        "id": "REF-0015",
        "groundedFromAnchor": "Capilla Sixtina",
        "computedScore": 83,
        "h3Index": "891e80505c7ffff"
      }
    },
    {
      "type": "Feature",
      "geometry": {
        "type": "Point",
        "coordinates": [
          12.453389,
          41.902682
        ]
      },
      "properties": {
        "name": "Basílica de San Pedro",
        "title": "Templo principal de la Cristiandad",
        "category": "monumento",
        "latitude": 41.902682,
        "longitude": 12.453389,
        "city": "Ciudad del Vaticano",
        "country": "Ciudad del Vaticano",
        "address": "Piazza San Pietro, 00120 Citta del Vaticano",
        "date": "2023-10-15 10:30",
        "id": "REF-0016",
        "groundedFromAnchor": "Basílica de San Pedro",
        "computedScore": 85,
        "h3Index": "891e80505c7ffff"
      }
    },
    {
      "type": "Feature",
      "geometry": {
        "type": "Point",
        "coordinates": [
          12.456662,
          41.902165
        ]
      },
      "properties": {
        "name": "Plaza de San Pedro",
        "title": "Plaza eliptica monumental con la columnata de Bernini",
        "category": "monumento",
        "latitude": 41.902165,
        "longitude": 12.456662,
        "city": "Ciudad del Vaticano",
        "country": "Ciudad del Vaticano",
        "address": "Piazza San Pietro, 00120 Citta del Vaticano",
        "date": "2023-10-15 11:15",
        "id": "REF-0017",
        "groundedFromAnchor": "Plaza de San Pedro",
        "computedScore": 83,
        "h3Index": "891e805051bffff"
      }
    },
    {
      "type": "Feature",
      "geometry": {
        "type": "Point",
        "coordinates": [
          12.453612,
          41.906487
        ]
      },
      "properties": {
        "name": "Museos Vaticanos y Capilla Sixtina",
        "title": "Entrada principal a los Museos Vaticanos",
        "category": "actividad",
        "latitude": 41.906487,
        "longitude": 12.453612,
        "city": "Ciudad del Vaticano",
        "country": "Ciudad del Vaticano",
        "address": "Viale Vaticano, 00165 Citta del Vaticano",
        "date": "2023-10-15 12:45",
        "id": "REF-0018",
        "groundedFromAnchor": "Museos Vaticanos",
        "computedScore": 90,
        "h3Index": "891e805058bffff"
      }
    },
    {
      "type": "Feature",
      "geometry": {
        "type": "Point",
        "coordinates": [
          12.448523,
          41.903811
        ]
      },
      "properties": {
        "name": "Jardines del Vaticano",
        "title": "Jardines urbanos y bosque renacentista",
        "category": "naturaleza",
        "latitude": 41.903811,
        "longitude": 12.448523,
        "city": "Ciudad del Vaticano",
        "country": "Ciudad del Vaticano",
        "address": "Casina Pio IV, 00120 Citta del Vaticano",
        "date": "2023-10-15 14:20",
        "id": "REF-0019",
        "groundedFromAnchor": "Jardines del Vaticano",
        "computedScore": 95,
        "h3Index": "891e80505c3ffff"
      }
    },
    {
      "type": "Feature",
      "geometry": {
        "type": "Point",
        "coordinates": [
          12.458215,
          41.903521
        ]
      },
      "properties": {
        "name": "Ristorante Arlu",
        "title": "Restaurante de cocina tradicional romana junto al Vaticano",
        "category": "restaurante",
        "latitude": 41.903521,
        "longitude": 12.458215,
        "city": "Roma",
        "country": "Italia",
        "address": "Borgo Pio 135, 00193 Roma",
        "date": "2023-10-15 15:00",
        "id": "REF-0020",
        "groundedFromAnchor": "Borgo Pio",
        "computedScore": 86,
        "h3Index": "891e8050513ffff"
      }
    },
    {
      "type": "Feature",
      "geometry": {
        "type": "Point",
        "coordinates": [
          12.45393,
          41.90212
        ]
      },
      "properties": {
        "name": "Basílica de San Pedro",
        "title": "Catedral insigne del Vaticano",
        "category": "monumento",
        "latitude": 41.90212,
        "longitude": 12.45393,
        "city": "Ciudad del Vaticano",
        "country": "Ciudad del Vaticano",
        "address": "Piazza San Pietro, 00120 Città del Vaticano",
        "date": "2023-10-12 10:30",
        "id": "REF-0021",
        "groundedFromAnchor": "Basílica de San Pedro",
        "computedScore": 85,
        "h3Index": "891e80505c7ffff"
      }
    },
    {
      "type": "Feature",
      "geometry": {
        "type": "Point",
        "coordinates": [
          12.45612,
          41.90223
        ]
      },
      "properties": {
        "name": "Plaza de San Pedro",
        "title": "Esplanada monumental de Bernini",
        "category": "monumento",
        "latitude": 41.90223,
        "longitude": 12.45612,
        "city": "Ciudad del Vaticano",
        "country": "Ciudad del Vaticano",
        "address": "Piazza San Pietro, 00120 Città del Vaticano",
        "date": "2023-10-12 11:15",
        "id": "REF-0022",
        "groundedFromAnchor": "Plaza de San Pedro",
        "computedScore": 83,
        "h3Index": "891e805051bffff"
      }
    },
    {
      "type": "Feature",
      "geometry": {
        "type": "Point",
        "coordinates": [
          12.45361,
          41.90649
        ]
      },
      "properties": {
        "name": "Museos Vaticanos",
        "title": "Complejo museológico vaticano",
        "category": "actividad",
        "latitude": 41.90649,
        "longitude": 12.45361,
        "city": "Ciudad del Vaticano",
        "country": "Ciudad del Vaticano",
        "address": "Viale Vaticano, 00120 Città del Vaticano",
        "date": "2023-10-12 12:45",
        "id": "REF-0023",
        "groundedFromAnchor": "Museos Vaticanos",
        "computedScore": 90,
        "h3Index": "891e805058bffff"
      }
    },
    {
      "type": "Feature",
      "geometry": {
        "type": "Point",
        "coordinates": [
          12.44911,
          41.90382
        ]
      },
      "properties": {
        "name": "Jardines del Vaticano",
        "title": "Espacio verde e histórico vaticano",
        "category": "naturaleza",
        "latitude": 41.90382,
        "longitude": 12.44911,
        "city": "Ciudad del Vaticano",
        "country": "Ciudad del Vaticano",
        "address": "Sierra de San Pedro, 00120 Città del Vaticano",
        "date": "2023-10-12 14:20",
        "id": "REF-0024",
        "groundedFromAnchor": "Jardines del Vaticano",
        "computedScore": 93,
        "h3Index": "891e80505c3ffff"
      }
    },
    {
      "type": "Feature",
      "geometry": {
        "type": "Point",
        "coordinates": [
          12.45448,
          41.90295
        ]
      },
      "properties": {
        "name": "Capilla Sixtina",
        "title": "Capilla del Palacio Apostólico",
        "category": "monumento",
        "latitude": 41.90295,
        "longitude": 12.45448,
        "city": "Ciudad del Vaticano",
        "country": "Ciudad del Vaticano",
        "address": "Cortile del Belvedere, 00120 Città del Vaticano",
        "date": "2023-10-12 15:50",
        "id": "REF-0025",
        "groundedFromAnchor": "Basílica de San Pedro",
        "computedScore": 84,
        "h3Index": "891e80505c7ffff"
      }
    },
    {
      "type": "Feature",
      "geometry": {
        "type": "Point",
        "coordinates": [
          12.453937,
          41.902167
        ]
      },
      "properties": {
        "name": "Basílica de San Pedro",
        "title": "Basílica papal principal de la cristiandad",
        "category": "monumento",
        "latitude": 41.902167,
        "longitude": 12.453937,
        "city": "Ciudad del Vaticano",
        "country": "Ciudad del Vaticano",
        "address": "Piazza San Pietro, 00120 Città del Vaticano",
        "date": "2023-10-14 10:30",
        "id": "REF-0026",
        "groundedFromAnchor": "Basílica de San Pedro",
        "computedScore": 84,
        "h3Index": "891e80505c7ffff"
      }
    },
    {
      "type": "Feature",
      "geometry": {
        "type": "Point",
        "coordinates": [
          12.457222,
          41.902222
        ]
      },
      "properties": {
        "name": "Plaza de San Pedro",
        "title": "Plaza elíptica frente a la Basílica de San Pedro",
        "category": "monumento",
        "latitude": 41.902222,
        "longitude": 12.457222,
        "city": "Ciudad del Vaticano",
        "country": "Ciudad del Vaticano",
        "address": "Piazza San Pietro, 00120 Città del Vaticano",
        "date": "2023-10-14 11:45",
        "id": "REF-0027",
        "groundedFromAnchor": "Plaza de San Pedro",
        "computedScore": 82,
        "h3Index": "891e805051bffff"
      }
    },
    {
      "type": "Feature",
      "geometry": {
        "type": "Point",
        "coordinates": [
          12.454444,
          41.906389
        ]
      },
      "properties": {
        "name": "Museos Vaticanos",
        "title": "Complejo museístico pontificio",
        "category": "actividad",
        "latitude": 41.906389,
        "longitude": 12.454444,
        "city": "Ciudad del Vaticano",
        "country": "Ciudad del Vaticano",
        "address": "Viale Vaticano, 00120 Città del Vaticano",
        "date": "2023-10-14 14:15",
        "id": "REF-0028",
        "groundedFromAnchor": "Museos Vaticanos",
        "computedScore": 89,
        "h3Index": "891e805058bffff"
      }
    },
    {
      "type": "Feature",
      "geometry": {
        "type": "Point",
        "coordinates": [
          12.450278,
          41.903611
        ]
      },
      "properties": {
        "name": "Jardines del Vaticano",
        "title": "Jardines urbanos e históricos del Estado Vaticano",
        "category": "naturaleza",
        "latitude": 41.903611,
        "longitude": 12.450278,
        "city": "Ciudad del Vaticano",
        "country": "Ciudad del Vaticano",
        "address": "Viale dell'Apostolato, 00120 Città del Vaticano",
        "date": "2023-10-14 15:30",
        "id": "REF-0029",
        "groundedFromAnchor": "Jardines del Vaticano",
        "computedScore": 94,
        "h3Index": "891e80505c3ffff"
      }
    },
    {
      "type": "Feature",
      "geometry": {
        "type": "Point",
        "coordinates": [
          12.454444,
          41.903056
        ]
      },
      "properties": {
        "name": "Capilla Sixtina",
        "title": "Capilla del Palacio Apostólico",
        "category": "monumento",
        "latitude": 41.903056,
        "longitude": 12.454444,
        "city": "Ciudad del Vaticano",
        "country": "Ciudad del Vaticano",
        "address": "Palacio Apostólico, 00120 Città del Vaticano",
        "date": "2023-10-14 16:45",
        "id": "REF-0030",
        "groundedFromAnchor": "Capilla Sixtina",
        "computedScore": 83,
        "h3Index": "891e80505c7ffff"
      }
    },
    {
      "type": "Feature",
      "geometry": {
        "type": "Point",
        "coordinates": [
          12.45447351993484,
          41.90307558307111
        ]
      },
      "properties": {
        "name": "Capilla Sixtina - Bóveda Miguel Ángel",
        "title": "Fresco del Juicio Final",
        "category": "monumento",
        "latitude": 41.90307558307111,
        "longitude": 12.45447351993484,
        "city": "Ciudad del Vaticano",
        "country": "Ciudad del Vaticano",
        "address": "Cortile del Belvedere, 00120 Città del Vaticano",
        "date": "2024-05-15 11:30",
        "id": "REF-0031",
        "groundedFromAnchor": "Capilla Sixtina",
        "computedScore": 83,
        "h3Index": "891e80505c7ffff"
      }
    },
    {
      "type": "Feature",
      "geometry": {
        "type": "Point",
        "coordinates": [
          12.454675625140155,
          41.90317117047503
        ]
      },
      "properties": {
        "name": "Museos Vaticanos - Pasillo de acceso a la Capilla Sixtina",
        "title": "Galería de Exposición Norte",
        "category": "actividad",
        "latitude": 41.90317117047503,
        "longitude": 12.454675625140155,
        "city": "Ciudad del Vaticano",
        "country": "Ciudad del Vaticano",
        "address": "Viale Vaticano, 00165 Città del Vaticano",
        "date": "2024-05-15 11:45",
        "id": "REF-0032",
        "groundedFromAnchor": "Capilla Sixtina",
        "computedScore": 84,
        "h3Index": "891e80505c7ffff"
      }
    },
    {
      "type": "Feature",
      "geometry": {
        "type": "Point",
        "coordinates": [
          12.45421385231206,
          41.90308635096464
        ]
      },
      "properties": {
        "name": "Patio Borgia - Cercanías de la Capilla Sixtina",
        "title": "Patio Interior Apostólico",
        "category": "monumento",
        "latitude": 41.90308635096464,
        "longitude": 12.45421385231206,
        "city": "Ciudad del Vaticano",
        "country": "Ciudad del Vaticano",
        "address": "Cortile del Pappagallo, 00120 Città del Vaticano",
        "date": "2024-05-15 12:00",
        "id": "REF-0033",
        "groundedFromAnchor": "Capilla Sixtina",
        "computedScore": 83,
        "h3Index": "891e80505c7ffff"
      }
    },
    {
      "type": "Feature",
      "geometry": {
        "type": "Point",
        "coordinates": [
          12.454122324001535,
          41.90255893635337
        ]
      },
      "properties": {
        "name": "Paso de la Scala Regia hacia la Capilla Sixtina",
        "title": "Paso Palacial Sur",
        "category": "monumento",
        "latitude": 41.90255893635337,
        "longitude": 12.454122324001535,
        "city": "Ciudad del Vaticano",
        "country": "Ciudad del Vaticano",
        "address": "Palazzo Apostolico, 00120 Città del Vaticano",
        "date": "2024-05-15 12:15",
        "id": "REF-0034",
        "groundedFromAnchor": "Capilla Sixtina",
        "computedScore": 83,
        "h3Index": "891e80505c7ffff"
      }
    },
    {
      "type": "Feature",
      "geometry": {
        "type": "Point",
        "coordinates": [
          12.454782834910205,
          41.903157493846
        ]
      },
      "properties": {
        "name": "Sala Ducale y Entrada Oriental Sixtina",
        "title": "Antecámara Papal",
        "category": "monumento",
        "latitude": 41.903157493846,
        "longitude": 12.454782834910205,
        "city": "Ciudad del Vaticano",
        "country": "Ciudad del Vaticano",
        "address": "Palazzi Pontifici, 00120 Città del Vaticano",
        "date": "2024-05-15 12:30",
        "id": "REF-0035",
        "groundedFromAnchor": "Capilla Sixtina",
        "computedScore": 81,
        "h3Index": "891e80505c7ffff"
      }
    },
    {
      "type": "Feature",
      "geometry": {
        "type": "Point",
        "coordinates": [
          12.454791397616196,
          41.903271642117105
        ]
      },
      "properties": {
        "name": "Museos Vaticanos - Salida Capilla Sixtina",
        "title": "Acceso norte a la Capilla Sixtina",
        "category": "monumento",
        "latitude": 41.903271642117105,
        "longitude": 12.454791397616196,
        "city": "Ciudad del Vaticano",
        "country": "Ciudad del Vaticano",
        "address": "Viale Vaticano, 00120 Ciudad del Vaticano",
        "date": "2023-10-14 10:15",
        "id": "REF-0036",
        "groundedFromAnchor": "Capilla Sixtina",
        "computedScore": 83,
        "h3Index": "891e80505c7ffff"
      }
    },
    {
      "type": "Feature",
      "geometry": {
        "type": "Point",
        "coordinates": [
          12.454702245882995,
          41.90299359207884
        ]
      },
      "properties": {
        "name": "Capilla Sixtina - Portal del Juicio Final",
        "title": "Pared Este de la Capilla Sixtina",
        "category": "monumento",
        "latitude": 41.90299359207884,
        "longitude": 12.454702245882995,
        "city": "Ciudad del Vaticano",
        "country": "Ciudad del Vaticano",
        "address": "Città del Vaticano, 00120",
        "date": "2023-10-14 11:30",
        "id": "REF-0037",
        "groundedFromAnchor": "Capilla Sixtina",
        "computedScore": 80,
        "h3Index": "891e80505c7ffff"
      }
    },
    {
      "type": "Feature",
      "geometry": {
        "type": "Point",
        "coordinates": [
          12.454868922041761,
          41.90318368393909
        ]
      },
      "properties": {
        "name": "Galería de Conexión Sixtina - Palacio Apostólico",
        "title": "Pasillo de acceso oriental",
        "category": "monumento",
        "latitude": 41.90318368393909,
        "longitude": 12.454868922041761,
        "city": "Ciudad del Vaticano",
        "country": "Ciudad del Vaticano",
        "address": "Cortile del Belvedere s/n, 00120",
        "date": "2023-10-14 12:10",
        "id": "REF-0038",
        "groundedFromAnchor": "Capilla Sixtina",
        "computedScore": 82,
        "h3Index": "891e80505c7ffff"
      }
    },
    {
      "type": "Feature",
      "geometry": {
        "type": "Point",
        "coordinates": [
          12.454599265126355,
          41.90275359376302
        ]
      },
      "properties": {
        "name": "Muro Sur de la Capilla Sixtina - Giardino Quadrato",
        "title": "Perímetro sur exterior de la nave",
        "category": "monumento",
        "latitude": 41.90275359376302,
        "longitude": 12.454599265126355,
        "city": "Ciudad del Vaticano",
        "country": "Ciudad del Vaticano",
        "address": "Via delle Fondamenta, 00120",
        "date": "2023-10-14 14:05",
        "id": "REF-0039",
        "groundedFromAnchor": "Capilla Sixtina",
        "computedScore": 84,
        "h3Index": "891e80505c7ffff"
      }
    },
    {
      "type": "Feature",
      "geometry": {
        "type": "Point",
        "coordinates": [
          12.45440788349871,
          41.90295047955294
        ]
      },
      "properties": {
        "name": "Nave Central de la Capilla Sixtina - Altas Bóvedas",
        "title": "Centro de la Capilla Sixtina",
        "category": "monumento",
        "latitude": 41.90295047955294,
        "longitude": 12.45440788349871,
        "city": "Ciudad del Vaticano",
        "country": "Ciudad del Vaticano",
        "address": "Cortile del Belvedere, 00120 Ciudad del Vaticano",
        "date": "2023-10-14 15:30",
        "id": "REF-0040",
        "groundedFromAnchor": "Capilla Sixtina",
        "computedScore": 81,
        "h3Index": "891e80505c7ffff"
      }
    },
    {
      "type": "Feature",
      "geometry": {
        "type": "Point",
        "coordinates": [
          12.45439328595517,
          41.90266018948026
        ]
      },
      "properties": {
        "name": "Capilla Sixtina - Nave Principal",
        "title": "Bóveda y Juicio Final de Miguel Ángel",
        "category": "monumento",
        "latitude": 41.90266018948026,
        "longitude": 12.45439328595517,
        "city": "Ciudad del Vaticano",
        "country": "Ciudad del Vaticano",
        "address": "Viale Vaticano, 00165 Citta del Vaticano",
        "date": "2023-10-15 11:30",
        "id": "REF-0041",
        "groundedFromAnchor": "Capilla Sixtina",
        "computedScore": 83,
        "h3Index": "891e80505c7ffff"
      }
    },
    {
      "type": "Feature",
      "geometry": {
        "type": "Point",
        "coordinates": [
          12.454732727095783,
          41.90296950746687
        ]
      },
      "properties": {
        "name": "Cortile del Belvedere - Galería de Acceso",
        "title": "Acceso Este a la Capilla Sixtina",
        "category": "monumento",
        "latitude": 41.90296950746687,
        "longitude": 12.454732727095783,
        "city": "Ciudad del Vaticano",
        "country": "Ciudad del Vaticano",
        "address": "Cortile del Belvedere, 00165 Citta del Vaticano",
        "date": "2023-10-15 11:45",
        "id": "REF-0042",
        "groundedFromAnchor": "Capilla Sixtina",
        "computedScore": 86,
        "h3Index": "891e80505c7ffff"
      }
    },
    {
      "type": "Feature",
      "geometry": {
        "type": "Point",
        "coordinates": [
          12.45436806529698,
          41.90275867382266
        ]
      },
      "properties": {
        "name": "Sala Regia - Conexión Palacio Apostólico",
        "title": "Acceso Ceremonial Privado a la Sixtina",
        "category": "monumento",
        "latitude": 41.90275867382266,
        "longitude": 12.45436806529698,
        "city": "Ciudad del Vaticano",
        "country": "Ciudad del Vaticano",
        "address": "Palazzo Apostolico, 00165 Citta del Vaticano",
        "date": "2023-10-15 12:00",
        "id": "REF-0043",
        "groundedFromAnchor": "Capilla Sixtina",
        "computedScore": 80,
        "h3Index": "891e80505c7ffff"
      }
    },
    {
      "type": "Feature",
      "geometry": {
        "type": "Point",
        "coordinates": [
          12.454219913624291,
          41.903341696583574
        ]
      },
      "properties": {
        "name": "Galería de los Mapas - Tramo Norte hacia Sixtina",
        "title": "Pasillo de Conexión de Museos Vaticanos",
        "category": "actividad",
        "latitude": 41.903341696583574,
        "longitude": 12.454219913624291,
        "city": "Ciudad del Vaticano",
        "country": "Ciudad del Vaticano",
        "address": "Viale Vaticano, 00165 Citta del Vaticano",
        "date": "2023-10-15 12:15",
        "id": "REF-0044",
        "groundedFromAnchor": "Capilla Sixtina",
        "computedScore": 83,
        "h3Index": "891e80505c7ffff"
      }
    },
    {
      "type": "Feature",
      "geometry": {
        "type": "Point",
        "coordinates": [
          12.45415001312997,
          41.90321965683707
        ]
      },
      "properties": {
        "name": "Capilla Paulina - Salida Oeste",
        "title": "Capilla Conexa del Palacio Apostólico",
        "category": "monumento",
        "latitude": 41.90321965683707,
        "longitude": 12.45415001312997,
        "city": "Ciudad del Vaticano",
        "country": "Ciudad del Vaticano",
        "address": "Palazzo Apostolico, 00165 Citta del Vaticano",
        "date": "2023-10-15 12:30",
        "id": "REF-0045",
        "groundedFromAnchor": "Capilla Sixtina",
        "computedScore": 80,
        "h3Index": "891e80505c7ffff"
      }
    },
    {
      "type": "Feature",
      "geometry": {
        "type": "Point",
        "coordinates": [
          12.454106123025044,
          41.90266486755673
        ]
      },
      "properties": {
        "name": "Capilla Sixtina - Bóveda de Miguel Ángel",
        "title": "Frescos renacentistas de la Bóveda",
        "category": "monumento",
        "latitude": 41.90266486755673,
        "longitude": 12.454106123025044,
        "city": "Ciudad del Vaticano",
        "country": "Ciudad del Vaticano",
        "address": "Cortile del Pappagallo, 00120 Città del Vaticano",
        "date": "2023-10-15 10:30",
        "id": "REF-0046",
        "groundedFromAnchor": "Capilla Sixtina",
        "computedScore": 83,
        "h3Index": "891e80505c7ffff"
      }
    },
    {
      "type": "Feature",
      "geometry": {
        "type": "Point",
        "coordinates": [
          12.454357287166353,
          41.90257766125755
        ]
      },
      "properties": {
        "name": "Juicio Final de Miguel Ángel",
        "title": "Mural del Juicio Final en el Altar",
        "category": "monumento",
        "latitude": 41.90257766125755,
        "longitude": 12.454357287166353,
        "city": "Ciudad del Vaticano",
        "country": "Ciudad del Vaticano",
        "address": "Pared del Altar, Capilla Sixtina, 00120 Città del Vaticano",
        "date": "2023-10-15 11:15",
        "id": "REF-0047",
        "groundedFromAnchor": "Capilla Sixtina",
        "computedScore": 81,
        "h3Index": "891e80505c7ffff"
      }
    },
    {
      "type": "Feature",
      "geometry": {
        "type": "Point",
        "coordinates": [
          12.454675686214097,
          41.90327245364451
        ]
      },
      "properties": {
        "name": "Cortile del Belvedere - Acceso Sixtina",
        "title": "Patio del Belvedere y paso a galerías",
        "category": "actividad",
        "latitude": 41.90327245364451,
        "longitude": 12.454675686214097,
        "city": "Ciudad del Vaticano",
        "country": "Ciudad del Vaticano",
        "address": "Viale Vaticano, 00120 Città del Vaticano",
        "date": "2023-10-15 12:00",
        "id": "REF-0048",
        "groundedFromAnchor": "Capilla Sixtina",
        "computedScore": 88,
        "h3Index": "891e80505c7ffff"
      }
    },
    {
      "type": "Feature",
      "geometry": {
        "type": "Point",
        "coordinates": [
          12.454521407214507,
          41.90305922568797
        ]
      },
      "properties": {
        "name": "Cortile della Pigna - Cafetería Museos Vaticanos",
        "title": "Área de descanso y restauración",
        "category": "restaurante",
        "latitude": 41.90305922568797,
        "longitude": 12.454521407214507,
        "city": "Ciudad del Vaticano",
        "country": "Ciudad del Vaticano",
        "address": "Cortile della Pigna, 00120 Città del Vaticano",
        "date": "2023-10-15 13:10",
        "id": "REF-0049",
        "groundedFromAnchor": "Capilla Sixtina",
        "computedScore": 90,
        "h3Index": "891e80505c7ffff"
      }
    },
    {
      "type": "Feature",
      "geometry": {
        "type": "Point",
        "coordinates": [
          12.454114507923373,
          41.9029682676782
        ]
      },
      "properties": {
        "name": "Sala Regia y Vestíbulo del Palacio Apostólico",
        "title": "Paso de acceso reservado hacia la Capilla Sixtina",
        "category": "monumento",
        "latitude": 41.9029682676782,
        "longitude": 12.454114507923373,
        "city": "Ciudad del Vaticano",
        "country": "Ciudad del Vaticano",
        "address": "Palazzo Apostolico, Cortile del Maresciallo, 00120 Città del Vaticano",
        "date": "2023-10-15 14:05",
        "id": "REF-0050",
        "groundedFromAnchor": "Capilla Sixtina",
        "computedScore": 80,
        "h3Index": "891e80505c7ffff"
      }
    },
    {
      "type": "Feature",
      "geometry": {
        "type": "Point",
        "coordinates": [
          12.45484941186757,
          41.90276568065822
        ]
      },
      "properties": {
        "name": "Capilla Sixtina - Bóveda Central",
        "title": "Techo de la Capilla Sixtina",
        "category": "monumento",
        "latitude": 41.90276568065822,
        "longitude": 12.45484941186757,
        "city": "Ciudad del Vaticano",
        "country": "Ciudad del Vaticano",
        "address": "Viale Vaticano, 00120 Città del Vaticano",
        "date": "2023-10-15 11:30",
        "id": "REF-0051",
        "groundedFromAnchor": "Capilla Sixtina",
        "computedScore": 83,
        "h3Index": "891e80505c7ffff"
      }
    },
    {
      "type": "Feature",
      "geometry": {
        "type": "Point",
        "coordinates": [
          12.454500579832738,
          41.90301272974809
        ]
      },
      "properties": {
        "name": "Capilla Sixtina - Muro del Juicio Final",
        "title": "Fresco del Juicio Final",
        "category": "monumento",
        "latitude": 41.90301272974809,
        "longitude": 12.454500579832738,
        "city": "Ciudad del Vaticano",
        "country": "Ciudad del Vaticano",
        "address": "Cortile del Belvedere, 00120 Città del Vaticano",
        "date": "2023-10-15 11:35",
        "id": "REF-0052",
        "groundedFromAnchor": "Capilla Sixtina",
        "computedScore": 81,
        "h3Index": "891e80505c7ffff"
      }
    },
    {
      "type": "Feature",
      "geometry": {
        "type": "Point",
        "coordinates": [
          12.454674092731446,
          41.9029883845713
        ]
      },
      "properties": {
        "name": "Galería de los Tapices - Acceso Sixtina",
        "title": "Pasaje hacia la Capilla Sixtina",
        "category": "actividad",
        "latitude": 41.9029883845713,
        "longitude": 12.454674092731446,
        "city": "Ciudad del Vaticano",
        "country": "Ciudad del Vaticano",
        "address": "Viale Vaticano, 00120 Città del Vaticano",
        "date": "2023-10-15 11:40",
        "id": "REF-0053",
        "groundedFromAnchor": "Capilla Sixtina",
        "computedScore": 83,
        "h3Index": "891e80505c7ffff"
      }
    },
    {
      "type": "Feature",
      "geometry": {
        "type": "Point",
        "coordinates": [
          12.454468466080868,
          41.90334184962462
        ]
      },
      "properties": {
        "name": "Patio del Belvedere - Muro Norte Sixtina",
        "title": "Exterior Norte de la Capilla Sixtina",
        "category": "monumento",
        "latitude": 41.90334184962462,
        "longitude": 12.454468466080868,
        "city": "Ciudad del Vaticano",
        "country": "Ciudad del Vaticano",
        "address": "Cortile del Belvedere, 00120 Città del Vaticano",
        "date": "2023-10-15 11:45",
        "id": "REF-0054",
        "groundedFromAnchor": "Capilla Sixtina",
        "computedScore": 82,
        "h3Index": "891e80505c7ffff"
      }
    },
    {
      "type": "Feature",
      "geometry": {
        "type": "Point",
        "coordinates": [
          12.454599455373412,
          41.90265424369591
        ]
      },
      "properties": {
        "name": "Sala Regia - Palacio Apostólico",
        "title": "Acceso Privado al Conclave",
        "category": "monumento",
        "latitude": 41.90265424369591,
        "longitude": 12.454599455373412,
        "city": "Ciudad del Vaticano",
        "country": "Ciudad del Vaticano",
        "address": "Piazza San Pietro, 00120 Città del Vaticano",
        "date": "2023-10-15 11:50",
        "id": "REF-0055",
        "groundedFromAnchor": "Capilla Sixtina",
        "computedScore": 81,
        "h3Index": "891e80505c7ffff"
      }
    },
    {
      "type": "Feature",
      "geometry": {
        "type": "Point",
        "coordinates": [
          12.454616022522863,
          41.90262778435418
        ]
      },
      "properties": {
        "name": "Bóveda de la Capilla Sixtina - La Creación de Adán",
        "title": "Fresco central de Miguel Ángel",
        "category": "monumento",
        "latitude": 41.90262778435418,
        "longitude": 12.454616022522863,
        "city": "Ciudad del Vaticano",
        "country": "Ciudad del Vaticano",
        "address": "Viale Vaticano, 00120 Città del Vaticano",
        "date": "2023-10-14 11:30",
        "id": "REF-0056",
        "groundedFromAnchor": "Capilla Sixtina",
        "computedScore": 83,
        "h3Index": "891e80505c7ffff"
      }
    },
    {
      "type": "Feature",
      "geometry": {
        "type": "Point",
        "coordinates": [
          12.454650817890874,
          41.90324187898233
        ]
      },
      "properties": {
        "name": "Galería de Acceso a la Capilla Sixtina - Pared Norte",
        "title": "Corredor de conexión con el Palacio Apostólico",
        "category": "monumento",
        "latitude": 41.90324187898233,
        "longitude": 12.454650817890874,
        "city": "Ciudad del Vaticano",
        "country": "Ciudad del Vaticano",
        "address": "Cortile del Belvedere, 00120 Città del Vaticano",
        "date": "2023-10-14 11:45",
        "id": "REF-0057",
        "groundedFromAnchor": "Capilla Sixtina",
        "computedScore": 83,
        "h3Index": "891e80505c7ffff"
      }
    },
    {
      "type": "Feature",
      "geometry": {
        "type": "Point",
        "coordinates": [
          12.45449133911356,
          41.90300218644109
        ]
      },
      "properties": {
        "name": "El Juicio Final - Pared Altar Capilla Sixtina",
        "title": "Mural monumental del Juicio Final",
        "category": "monumento",
        "latitude": 41.90300218644109,
        "longitude": 12.45449133911356,
        "city": "Ciudad del Vaticano",
        "country": "Ciudad del Vaticano",
        "address": "Capilla Sixtina, 00120 Città del Vaticano",
        "date": "2023-10-14 12:00",
        "id": "REF-0058",
        "groundedFromAnchor": "Capilla Sixtina",
        "computedScore": 80,
        "h3Index": "891e80505c7ffff"
      }
    },
    {
      "type": "Feature",
      "geometry": {
        "type": "Point",
        "coordinates": [
          12.45445063374785,
          41.902674763183036
        ]
      },
      "properties": {
        "name": "Pasaje Sur del Palacio Apostólico",
        "title": "Salida VIP hacia las Estancias de Rafael",
        "category": "monumento",
        "latitude": 41.902674763183036,
        "longitude": 12.45445063374785,
        "city": "Ciudad del Vaticano",
        "country": "Ciudad del Vaticano",
        "address": "Via delle Fondamenta, 00120 Città del Vaticano",
        "date": "2023-10-14 12:15",
        "id": "REF-0059",
        "groundedFromAnchor": "Capilla Sixtina",
        "computedScore": 83,
        "h3Index": "891e80505c7ffff"
      }
    },
    {
      "type": "Feature",
      "geometry": {
        "type": "Point",
        "coordinates": [
          12.454440948352307,
          41.902876491782955
        ]
      },
      "properties": {
        "name": "Patio del Belvedere - Acceso Capilla Sixtina",
        "title": "Punto de control de flujo de visitantes",
        "category": "actividad",
        "latitude": 41.902876491782955,
        "longitude": 12.454440948352307,
        "city": "Ciudad del Vaticano",
        "country": "Ciudad del Vaticano",
        "address": "Cortile del Belvedere, 00120 Città del Vaticano",
        "date": "2023-10-14 12:30",
        "id": "REF-0060",
        "groundedFromAnchor": "Capilla Sixtina",
        "computedScore": 88,
        "h3Index": "891e80505c7ffff"
      }
    },
    {
      "type": "Feature",
      "geometry": {
        "type": "Point",
        "coordinates": [
          12.454161546084187,
          41.902780480804076
        ]
      },
      "properties": {
        "name": "Capilla Sixtina - Sala Regia / Acceso Oeste",
        "title": "Entrada interior a la Capilla Sixtina",
        "category": "monumento",
        "latitude": 41.902780480804076,
        "longitude": 12.454161546084187,
        "city": "Ciudad del Vaticano",
        "country": "Ciudad del Vaticano",
        "address": "Cortile del Belvedere, 00120 Città del Vaticano",
        "date": "2023-10-14 11:30",
        "id": "REF-0061",
        "groundedFromAnchor": "Capilla Sixtina",
        "computedScore": 82,
        "h3Index": "891e80505c7ffff"
      }
    },
    {
      "type": "Feature",
      "geometry": {
        "type": "Point",
        "coordinates": [
          12.45442109545038,
          41.90285677974111
        ]
      },
      "properties": {
        "name": "Frescos del Juicio Final de Miguel Ángel",
        "title": "Altar Mayor y Bóveda Sixtina",
        "category": "monumento",
        "latitude": 41.90285677974111,
        "longitude": 12.45442109545038,
        "city": "Ciudad del Vaticano",
        "country": "Ciudad del Vaticano",
        "address": "Viale Vaticano, 00120 Città del Vaticano",
        "date": "2023-10-14 11:35",
        "id": "REF-0062",
        "groundedFromAnchor": "Capilla Sixtina",
        "computedScore": 80,
        "h3Index": "891e80505c7ffff"
      }
    },
    {
      "type": "Feature",
      "geometry": {
        "type": "Point",
        "coordinates": [
          12.454655480778168,
          41.90256373268781
        ]
      },
      "properties": {
        "name": "Cappella Paolina - Palacios Apostólicos",
        "title": "Capilla adyacente en el Palacio Apostólico",
        "category": "monumento",
        "latitude": 41.90256373268781,
        "longitude": 12.454655480778168,
        "city": "Ciudad del Vaticano",
        "country": "Ciudad del Vaticano",
        "address": "Cortile San Damaso, 00120 Città del Vaticano",
        "date": "2023-10-14 11:40",
        "id": "REF-0063",
        "groundedFromAnchor": "Capilla Sixtina",
        "computedScore": 79,
        "h3Index": "891e80505c7ffff"
      }
    },
    {
      "type": "Feature",
      "geometry": {
        "type": "Point",
        "coordinates": [
          12.454399998592827,
          41.90286009258765
        ]
      },
      "properties": {
        "name": "Bóveda de la Capilla Sixtina - Creación de Adán",
        "title": "Bóveda Central de la Capilla Sixtina",
        "category": "actividad",
        "latitude": 41.90286009258765,
        "longitude": 12.454399998592827,
        "city": "Ciudad del Vaticano",
        "country": "Ciudad del Vaticano",
        "address": "Musei Vaticani, 00120 Città del Vaticano",
        "date": "2023-10-14 11:42",
        "id": "REF-0064",
        "groundedFromAnchor": "Capilla Sixtina",
        "computedScore": 81,
        "h3Index": "891e80505c7ffff"
      }
    },
    {
      "type": "Feature",
      "geometry": {
        "type": "Point",
        "coordinates": [
          12.454432324406257,
          41.90278549012122
        ]
      },
      "properties": {
        "name": "Coro de la Capilla Sixtina (Cantoria)",
        "title": "Zona del Coro Papal",
        "category": "monumento",
        "latitude": 41.90278549012122,
        "longitude": 12.454432324406257,
        "city": "Ciudad del Vaticano",
        "country": "Ciudad del Vaticano",
        "address": "Via Vaticano, 00120 Città del Vaticano",
        "date": "2023-10-14 11:45",
        "id": "REF-0065",
        "groundedFromAnchor": "Capilla Sixtina",
        "computedScore": 79,
        "h3Index": "891e80505c7ffff"
      }
    },
    {
      "type": "Feature",
      "geometry": {
        "type": "Point",
        "coordinates": [
          12.45410915342606,
          41.90282133937014
        ]
      },
      "properties": {
        "name": "Ingreso a la Capilla Sixtina desde la Cappella Paolina",
        "title": "Acceso Sur Capilla Sixtina",
        "category": "monumento",
        "latitude": 41.90282133937014,
        "longitude": 12.45410915342606,
        "city": "Ciudad del Vaticano",
        "country": "Ciudad del Vaticano",
        "address": "Viale Vaticano, 00120 Ciudad del Vaticano",
        "date": "2023-10-15 10:30",
        "id": "REF-0066",
        "groundedFromAnchor": "Capilla Sixtina",
        "computedScore": 82,
        "h3Index": "891e80505c7ffff"
      }
    },
    {
      "type": "Feature",
      "geometry": {
        "type": "Point",
        "coordinates": [
          12.454166694089585,
          41.9033110706893
        ]
      },
      "properties": {
        "name": "Galería de los Tapices y Pasaje Norte",
        "title": "Pasillo de Conexión Museos Vaticanos",
        "category": "actividad",
        "latitude": 41.9033110706893,
        "longitude": 12.454166694089585,
        "city": "Ciudad del Vaticano",
        "country": "Ciudad del Vaticano",
        "address": "Cortile del Belvedere, 00120 Ciudad del Vaticano",
        "date": "2023-10-15 11:15",
        "id": "REF-0067",
        "groundedFromAnchor": "Capilla Sixtina",
        "computedScore": 83,
        "h3Index": "891e80505c7ffff"
      }
    },
    {
      "type": "Feature",
      "geometry": {
        "type": "Point",
        "coordinates": [
          12.454527613541226,
          41.90256876162409
        ]
      },
      "properties": {
        "name": "Sala Regia del Palacio Apostólico",
        "title": "Vestíbulo de Estado Apostólico",
        "category": "monumento",
        "latitude": 41.90256876162409,
        "longitude": 12.454527613541226,
        "city": "Ciudad del Vaticano",
        "country": "Ciudad del Vaticano",
        "address": "Palazzo Apostolico, 00120 Ciudad del Vaticano",
        "date": "2023-10-15 12:00",
        "id": "REF-0068",
        "groundedFromAnchor": "Capilla Sixtina",
        "computedScore": 80,
        "h3Index": "891e80505c7ffff"
      }
    },
    {
      "type": "Feature",
      "geometry": {
        "type": "Point",
        "coordinates": [
          12.454799985501301,
          41.902808926460935
        ]
      },
      "properties": {
        "name": "Cortile San Damaso",
        "title": "Patio de San Dámaso",
        "category": "monumento",
        "latitude": 41.902808926460935,
        "longitude": 12.454799985501301,
        "city": "Ciudad del Vaticano",
        "country": "Ciudad del Vaticano",
        "address": "Cortile di San Damaso, 00120 Ciudad del Vaticano",
        "date": "2023-10-15 14:20",
        "id": "REF-0069",
        "groundedFromAnchor": "Capilla Sixtina",
        "computedScore": 84,
        "h3Index": "891e80505c7ffff"
      }
    },
    {
      "type": "Feature",
      "geometry": {
        "type": "Point",
        "coordinates": [
          12.454319269449714,
          41.903007067623946
        ]
      },
      "properties": {
        "name": "Bóveda y Juicio Final de la Capilla Sixtina",
        "title": "Nave Central Capilla Sixtina",
        "category": "monumento",
        "latitude": 41.903007067623946,
        "longitude": 12.454319269449714,
        "city": "Ciudad del Vaticano",
        "country": "Ciudad del Vaticano",
        "address": "Via Mascherino, 00120 Ciudad del Vaticano",
        "date": "2023-10-15 15:45",
        "id": "REF-0070",
        "groundedFromAnchor": "Capilla Sixtina",
        "computedScore": 84,
        "h3Index": "891e80505c7ffff"
      }
    },
    {
      "type": "Feature",
      "geometry": {
        "type": "Point",
        "coordinates": [
          12.453300507661456,
          41.902539802868965
        ]
      },
      "properties": {
        "name": "Basílica Papal de San Pedro",
        "title": "Templo mayor de la cristiandad",
        "category": "monumento",
        "latitude": 41.902539802868965,
        "longitude": 12.453300507661456,
        "city": "Ciudad del Vaticano",
        "country": "Ciudad del Vaticano",
        "address": "Piazza San Pietro, 00120 Città del Vaticano",
        "date": "2023-10-15 10:30",
        "id": "REF-0071",
        "groundedFromAnchor": "Basílica de San Pedro",
        "computedScore": 85,
        "h3Index": "891e80505c7ffff"
      }
    },
    {
      "type": "Feature",
      "geometry": {
        "type": "Point",
        "coordinates": [
          12.457686177743483,
          41.90233569236012
        ]
      },
      "properties": {
        "name": "Plaza de San Pedro",
        "title": "Gran explanada con la columnata de Bernini",
        "category": "monumento",
        "latitude": 41.90233569236012,
        "longitude": 12.457686177743483,
        "city": "Ciudad del Vaticano",
        "country": "Ciudad del Vaticano",
        "address": "Piazza San Pietro, 00120 Città del Vaticano",
        "date": "2023-10-15 11:15",
        "id": "REF-0072",
        "groundedFromAnchor": "Plaza de San Pedro",
        "computedScore": 83,
        "h3Index": "891e8050513ffff"
      }
    },
    {
      "type": "Feature",
      "geometry": {
        "type": "Point",
        "coordinates": [
          12.453910991433137,
          41.906880573352204
        ]
      },
      "properties": {
        "name": "Museos Vaticanos - Acceso Viale Vaticano",
        "title": "Entrada principal a las galerías pontificias",
        "category": "actividad",
        "latitude": 41.906880573352204,
        "longitude": 12.453910991433137,
        "city": "Ciudad del Vaticano",
        "country": "Ciudad del Vaticano",
        "address": "Viale Vaticano, 00165 Città del Vaticano",
        "date": "2023-10-15 14:00",
        "id": "REF-0073",
        "groundedFromAnchor": "Museos Vaticanos",
        "computedScore": 89,
        "h3Index": "891e805058bffff"
      }
    },
    {
      "type": "Feature",
      "geometry": {
        "type": "Point",
        "coordinates": [
          12.454230727380594,
          41.902877243222775
        ]
      },
      "properties": {
        "name": "Capilla Sixtina",
        "title": "Recinto del cónclave y frescos de Miguel Ángel",
        "category": "monumento",
        "latitude": 41.902877243222775,
        "longitude": 12.454230727380594,
        "city": "Ciudad del Vaticano",
        "country": "Ciudad del Vaticano",
        "address": "Cortile del Belvedere, 00120 Città del Vaticano",
        "date": "2023-10-15 15:20",
        "id": "REF-0074",
        "groundedFromAnchor": "Capilla Sixtina",
        "computedScore": 80,
        "h3Index": "891e80505c7ffff"
      }
    },
    {
      "type": "Feature",
      "geometry": {
        "type": "Point",
        "coordinates": [
          12.450039348734476,
          41.90390234879197
        ]
      },
      "properties": {
        "name": "Jardines Vaticanos - Sector Casina Pio IV",
        "title": "Jardines botánicos y monumentales del Vaticano",
        "category": "naturaleza",
        "latitude": 41.90390234879197,
        "longitude": 12.450039348734476,
        "city": "Ciudad del Vaticano",
        "country": "Ciudad del Vaticano",
        "address": "Viale dell'Osservatorio, 00120 Città del Vaticano",
        "date": "2023-10-15 16:45",
        "id": "REF-0075",
        "groundedFromAnchor": "Jardines Vaticanos",
        "computedScore": 96,
        "h3Index": "891e80505c3ffff"
      }
    },
    {
      "type": "Feature",
      "geometry": {
        "type": "Point",
        "coordinates": [
          12.453704218839949,
          41.90241479944332
        ]
      },
      "properties": {
        "name": "Basílica de San Pedro",
        "title": "Fachada Principal y Atrio de San Pedro",
        "category": "monumento",
        "latitude": 41.90241479944332,
        "longitude": 12.453704218839949,
        "city": "Ciudad del Vaticano",
        "country": "Ciudad del Vaticano",
        "address": "Piazza San Pietro, 00120 Citta del Vaticano",
        "date": "2023-10-15 10:30",
        "id": "REF-0076",
        "groundedFromAnchor": "Basílica de San Pedro",
        "computedScore": 84,
        "h3Index": "891e80505c7ffff"
      }
    },
    {
      "type": "Feature",
      "geometry": {
        "type": "Point",
        "coordinates": [
          12.457197726054579,
          41.902027420578875
        ]
      },
      "properties": {
        "name": "Plaza de San Pedro",
        "title": "Columnata de Bernini y Obelisco Vaticano",
        "category": "monumento",
        "latitude": 41.902027420578875,
        "longitude": 12.457197726054579,
        "city": "Ciudad del Vaticano",
        "country": "Ciudad del Vaticano",
        "address": "Piazza San Pietro, 00120 Citta del Vaticano",
        "date": "2023-10-15 11:15",
        "id": "REF-0077",
        "groundedFromAnchor": "Plaza de San Pedro",
        "computedScore": 84,
        "h3Index": "891e805051bffff"
      }
    },
    {
      "type": "Feature",
      "geometry": {
        "type": "Point",
        "coordinates": [
          12.453422593600312,
          41.90663264293491
        ]
      },
      "properties": {
        "name": "Museos Vaticanos",
        "title": "Acceso Principal Viale Vaticano",
        "category": "actividad",
        "latitude": 41.90663264293491,
        "longitude": 12.453422593600312,
        "city": "Ciudad del Vaticano",
        "country": "Ciudad del Vaticano",
        "address": "Viale Vaticano, 00165 Citta del Vaticano",
        "date": "2023-10-15 12:45",
        "id": "REF-0078",
        "groundedFromAnchor": "Museos Vaticanos",
        "computedScore": 89,
        "h3Index": "891e80505d7ffff"
      }
    },
    {
      "type": "Feature",
      "geometry": {
        "type": "Point",
        "coordinates": [
          12.454557405104833,
          41.90295336040535
        ]
      },
      "properties": {
        "name": "Capilla Sixtina",
        "title": "Interior de la Capilla Sixtina y Palacio Apostólico",
        "category": "monumento",
        "latitude": 41.90295336040535,
        "longitude": 12.454557405104833,
        "city": "Ciudad del Vaticano",
        "country": "Ciudad del Vaticano",
        "address": "Cortile del Pappagallo, 00120 Citta del Vaticano",
        "date": "2023-10-15 14:20",
        "id": "REF-0079",
        "groundedFromAnchor": "Capilla Sixtina",
        "computedScore": 81,
        "h3Index": "891e80505c7ffff"
      }
    },
    {
      "type": "Feature",
      "geometry": {
        "type": "Point",
        "coordinates": [
          12.450037033739507,
          41.90379451263488
        ]
      },
      "properties": {
        "name": "Jardines Vaticanos",
        "title": "Jardines Franceses y Fuente del Águila",
        "category": "naturaleza",
        "latitude": 41.90379451263488,
        "longitude": 12.450037033739507,
        "city": "Ciudad del Vaticano",
        "country": "Ciudad del Vaticano",
        "address": "Viale dell'Esposizione, 00120 Citta del Vaticano",
        "date": "2023-10-15 16:00",
        "id": "REF-0080",
        "groundedFromAnchor": "Jardines Vaticanos",
        "computedScore": 94,
        "h3Index": "891e80505c3ffff"
      }
    },
    {
      "type": "Feature",
      "geometry": {
        "type": "Point",
        "coordinates": [
          12.453730729848838,
          41.90207737757657
        ]
      },
      "properties": {
        "name": "Basílica de San Pedro - Fachada Principal",
        "title": "Vista frontal de la Basílica de San Pedro",
        "category": "monumento",
        "latitude": 41.90207737757657,
        "longitude": 12.453730729848838,
        "city": "Ciudad del Vaticano",
        "country": "Ciudad del Vaticano",
        "address": "Piazza San Pietro, 00120 Città del Vaticano",
        "date": "2023-10-15 10:30",
        "id": "REF-0081",
        "groundedFromAnchor": "Basílica de San Pedro",
        "computedScore": 83,
        "h3Index": "891e80505c7ffff"
      }
    },
    {
      "type": "Feature",
      "geometry": {
        "type": "Point",
        "coordinates": [
          12.457152199074281,
          41.90234623873688
        ]
      },
      "properties": {
        "name": "Plaza de San Pedro - Obelisco Vaticano",
        "title": "Centro de la Plaza de San Pedro junto al Obelisco",
        "category": "monumento",
        "latitude": 41.90234623873688,
        "longitude": 12.457152199074281,
        "city": "Ciudad del Vaticano",
        "country": "Ciudad del Vaticano",
        "address": "Piazza San Pietro, 00120 Città del Vaticano",
        "date": "2023-10-15 11:15",
        "id": "REF-0082",
        "groundedFromAnchor": "Plaza de San Pedro",
        "computedScore": 83,
        "h3Index": "891e8050513ffff"
      }
    },
    {
      "type": "Feature",
      "geometry": {
        "type": "Point",
        "coordinates": [
          12.453463602030098,
          41.90664407176286
        ]
      },
      "properties": {
        "name": "Museos Vaticanos - Portal de Entrada Viale Vaticano",
        "title": "Acceso principal a los Museos Vaticanos",
        "category": "actividad",
        "latitude": 41.90664407176286,
        "longitude": 12.453463602030098,
        "city": "Ciudad del Vaticano",
        "country": "Ciudad del Vaticano",
        "address": "Viale Vaticano, 00165 Città del Vaticano",
        "date": "2023-10-15 12:45",
        "id": "REF-0083",
        "groundedFromAnchor": "Museos Vaticanos",
        "computedScore": 90,
        "h3Index": "891e80505d7ffff"
      }
    },
    {
      "type": "Feature",
      "geometry": {
        "type": "Point",
        "coordinates": [
          12.454574277587565,
          41.902640944569704
        ]
      },
      "properties": {
        "name": "Capilla Sixtina y Palacio Apostólico - Cortile del Belvedere",
        "title": "Fachada exterior contigua a la Capilla Sixtina",
        "category": "monumento",
        "latitude": 41.902640944569704,
        "longitude": 12.454574277587565,
        "city": "Ciudad del Vaticano",
        "country": "Ciudad del Vaticano",
        "address": "Cortile del Belvedere, 00120 Città del Vaticano",
        "date": "2023-10-15 14:20",
        "id": "REF-0084",
        "groundedFromAnchor": "Capilla Sixtina",
        "computedScore": 83,
        "h3Index": "891e80505c7ffff"
      }
    },
    {
      "type": "Feature",
      "geometry": {
        "type": "Point",
        "coordinates": [
          12.450142074983669,
          41.903861589289946
        ]
      },
      "properties": {
        "name": "Jardines Vaticanos - Sector Fontana dell'Aquilone",
        "title": "Zona boscosa y fuentes de los Jardines Vaticanos",
        "category": "naturaleza",
        "latitude": 41.903861589289946,
        "longitude": 12.450142074983669,
        "city": "Ciudad del Vaticano",
        "country": "Ciudad del Vaticano",
        "address": "Giardini Vaticani, 00120 Città del Vaticano",
        "date": "2023-10-15 16:00",
        "id": "REF-0085",
        "groundedFromAnchor": "Jardines Vaticanos",
        "computedScore": 93,
        "h3Index": "891e80505c3ffff"
      }
    },
    {
      "type": "Feature",
      "geometry": {
        "type": "Point",
        "coordinates": [
          12.453277179560098,
          41.90226885116532
        ]
      },
      "properties": {
        "name": "Basílica de San Pedro",
        "title": "Fachada Principal y Atrio de San Pedro",
        "category": "monumento",
        "latitude": 41.90226885116532,
        "longitude": 12.453277179560098,
        "city": "Ciudad del Vaticano",
        "country": "Ciudad del Vaticano",
        "address": "Piazza San Pietro, 00120 Citta del Vaticano",
        "date": "2023-10-15 10:30",
        "id": "REF-0086",
        "groundedFromAnchor": "Basílica de San Pedro",
        "computedScore": 85,
        "h3Index": "891e80505c7ffff"
      }
    },
    {
      "type": "Feature",
      "geometry": {
        "type": "Point",
        "coordinates": [
          12.457685119423598,
          41.90220743236516
        ]
      },
      "properties": {
        "name": "Plaza de San Pedro",
        "title": "Colonada de Bernini y Obelisco Vaticano",
        "category": "monumento",
        "latitude": 41.90220743236516,
        "longitude": 12.457685119423598,
        "city": "Ciudad del Vaticano",
        "country": "Ciudad del Vaticano",
        "address": "Piazza San Pietro, 00120 Citta del Vaticano",
        "date": "2023-10-15 11:15",
        "id": "REF-0087",
        "groundedFromAnchor": "Plaza de San Pedro",
        "computedScore": 83,
        "h3Index": "891e8050513ffff"
      }
    },
    {
      "type": "Feature",
      "geometry": {
        "type": "Point",
        "coordinates": [
          12.453642956522732,
          41.90654982739283
        ]
      },
      "properties": {
        "name": "Museos Vaticanos",
        "title": "Entrada Principal Viale Vaticano",
        "category": "actividad",
        "latitude": 41.90654982739283,
        "longitude": 12.453642956522732,
        "city": "Ciudad del Vaticano",
        "country": "Ciudad del Vaticano",
        "address": "Viale Vaticano, 00120 Citta del Vaticano",
        "date": "2023-10-15 09:00",
        "id": "REF-0088",
        "groundedFromAnchor": "Museos Vaticanos",
        "computedScore": 89,
        "h3Index": "891e805058bffff"
      }
    },
    {
      "type": "Feature",
      "geometry": {
        "type": "Point",
        "coordinates": [
          12.454767966119203,
          41.90275196376629
        ]
      },
      "properties": {
        "name": "Capilla Sixtina",
        "title": "Palacio Apostólico - Capilla Sixtina",
        "category": "monumento",
        "latitude": 41.90275196376629,
        "longitude": 12.454767966119203,
        "city": "Ciudad del Vaticano",
        "country": "Ciudad del Vaticano",
        "address": "Cortile del Belvedere, 00120 Citta del Vaticano",
        "date": "2023-10-15 14:20",
        "id": "REF-0089",
        "groundedFromAnchor": "Capilla Sixtina",
        "computedScore": 83,
        "h3Index": "891e80505c7ffff"
      }
    },
    {
      "type": "Feature",
      "geometry": {
        "type": "Point",
        "coordinates": [
          12.45027884490906,
          41.903645405604436
        ]
      },
      "properties": {
        "name": "Jardines Vaticanos",
        "title": "Bosquete y Paseos del Monte Vaticano",
        "category": "naturaleza",
        "latitude": 41.903645405604436,
        "longitude": 12.45027884490906,
        "city": "Ciudad del Vaticano",
        "country": "Ciudad del Vaticano",
        "address": "Viale dell'Osservatorio, 00120 Citta del Vaticano",
        "date": "2023-10-15 16:00",
        "id": "REF-0090",
        "groundedFromAnchor": "Jardines Vaticanos",
        "computedScore": 96,
        "h3Index": "891e80505c3ffff"
      }
    },
    {
      "type": "Feature",
      "geometry": {
        "type": "Point",
        "coordinates": [
          12.453827180255109,
          41.90244572004023
        ]
      },
      "properties": {
        "name": "Basílica de San Pedro",
        "title": "Interior y Altar Mayor de San Pedro",
        "category": "monumento",
        "latitude": 41.90244572004023,
        "longitude": 12.453827180255109,
        "city": "Ciudad del Vaticano",
        "country": "Ciudad del Vaticano",
        "address": "Piazza San Pietro, 00120 Citta del Vaticano",
        "date": "2023-10-14 10:30",
        "id": "REF-0091",
        "groundedFromAnchor": "Basílica de San Pedro",
        "computedScore": 83,
        "h3Index": "891e80505c7ffff"
      }
    },
    {
      "type": "Feature",
      "geometry": {
        "type": "Point",
        "coordinates": [
          12.457008977127131,
          41.902275697485436
        ]
      },
      "properties": {
        "name": "Plaza de San Pedro",
        "title": "Colonagado de Bernini y Obelisco Vaticano",
        "category": "monumento",
        "latitude": 41.902275697485436,
        "longitude": 12.457008977127131,
        "city": "Ciudad del Vaticano",
        "country": "Ciudad del Vaticano",
        "address": "Piazza San Pietro, 00120 Citta del Vaticano",
        "date": "2023-10-14 11:45",
        "id": "REF-0092",
        "groundedFromAnchor": "Plaza de San Pedro",
        "computedScore": 83,
        "h3Index": "891e805051bffff"
      }
    },
    {
      "type": "Feature",
      "geometry": {
        "type": "Point",
        "coordinates": [
          12.454006583722968,
          41.90616508556604
        ]
      },
      "properties": {
        "name": "Museos Vaticanos",
        "title": "Patio del Belvedere y Galería de Exposición",
        "category": "actividad",
        "latitude": 41.90616508556604,
        "longitude": 12.454006583722968,
        "city": "Ciudad del Vaticano",
        "country": "Ciudad del Vaticano",
        "address": "Viale Vaticano, 00165 Citta del Vaticano",
        "date": "2023-10-14 14:15",
        "id": "REF-0093",
        "groundedFromAnchor": "Museos Vaticanos",
        "computedScore": 89,
        "h3Index": "891e805058bffff"
      }
    },
    {
      "type": "Feature",
      "geometry": {
        "type": "Point",
        "coordinates": [
          12.454634303878052,
          41.90304470328978
        ]
      },
      "properties": {
        "name": "Capilla Sixtina",
        "title": "Bóveda y Juicio Final en la Capilla Sixtina",
        "category": "monumento",
        "latitude": 41.90304470328978,
        "longitude": 12.454634303878052,
        "city": "Ciudad del Vaticano",
        "country": "Ciudad del Vaticano",
        "address": "00120 Citta del Vaticano",
        "date": "2023-10-14 15:30",
        "id": "REF-0094",
        "groundedFromAnchor": "Capilla Sixtina",
        "computedScore": 81,
        "h3Index": "891e80505c7ffff"
      }
    },
    {
      "type": "Feature",
      "geometry": {
        "type": "Point",
        "coordinates": [
          12.450360065160877,
          41.90418531179989
        ]
      },
      "properties": {
        "name": "Jardines Vaticanos",
        "title": "Senderos Botánicos y Casina Pio IV",
        "category": "naturaleza",
        "latitude": 41.90418531179989,
        "longitude": 12.450360065160877,
        "city": "Ciudad del Vaticano",
        "country": "Ciudad del Vaticano",
        "address": "Viale dell'Osservatorio, 00120 Citta del Vaticano",
        "date": "2023-10-14 16:45",
        "id": "REF-0095",
        "groundedFromAnchor": "Jardines Vaticanos",
        "computedScore": 96,
        "h3Index": "891e80505c3ffff"
      }
    },
    {
      "type": "Feature",
      "geometry": {
        "type": "Point",
        "coordinates": [
          12.453366610588379,
          41.90180198251305
        ]
      },
      "properties": {
        "name": "Basílica de San Pedro",
        "title": "Fachada Principal de la Basílica Papal de San Pedro",
        "category": "monumento",
        "latitude": 41.90180198251305,
        "longitude": 12.453366610588379,
        "city": "Ciudad del Vaticano",
        "country": "Ciudad del Vaticano",
        "address": "Piazza San Pietro, 00120 Citta del Vaticano",
        "date": "2023-10-15 10:30",
        "id": "REF-0096",
        "groundedFromAnchor": "Basílica de San Pedro",
        "computedScore": 85,
        "h3Index": "891e80505c7ffff"
      }
    },
    {
      "type": "Feature",
      "geometry": {
        "type": "Point",
        "coordinates": [
          12.457451607788148,
          41.90224970684084
        ]
      },
      "properties": {
        "name": "Plaza de San Pedro",
        "title": "Colonada de Bernini en la Plaza de San Pedro",
        "category": "monumento",
        "latitude": 41.90224970684084,
        "longitude": 12.457451607788148,
        "city": "Ciudad del Vaticano",
        "country": "Ciudad del Vaticano",
        "address": "Piazza San Pietro, 00120 Citta del Vaticano",
        "date": "2023-10-15 11:15",
        "id": "REF-0097",
        "groundedFromAnchor": "Plaza de San Pedro",
        "computedScore": 82,
        "h3Index": "891e8050513ffff"
      }
    },
    {
      "type": "Feature",
      "geometry": {
        "type": "Point",
        "coordinates": [
          12.453568985015488,
          41.906872282102874
        ]
      },
      "properties": {
        "name": "Museos Vaticanos",
        "title": "Entrada Principal a los Museos Vaticanos",
        "category": "actividad",
        "latitude": 41.906872282102874,
        "longitude": 12.453568985015488,
        "city": "Ciudad del Vaticano",
        "country": "Ciudad del Vaticano",
        "address": "Viale Vaticano, 00165 Citta del Vaticano",
        "date": "2023-10-15 12:45",
        "id": "REF-0098",
        "groundedFromAnchor": "Museos Vaticanos",
        "computedScore": 89,
        "h3Index": "891e805058bffff"
      }
    },
    {
      "type": "Feature",
      "geometry": {
        "type": "Point",
        "coordinates": [
          12.45448973783646,
          41.90275277975968
        ]
      },
      "properties": {
        "name": "Capilla Sixtina",
        "title": "Capilla Sixtina del Palacio Apostólico",
        "category": "monumento",
        "latitude": 41.90275277975968,
        "longitude": 12.45448973783646,
        "city": "Ciudad del Vaticano",
        "country": "Ciudad del Vaticano",
        "address": "Cortile del Belvedere, 00120 Citta del Vaticano",
        "date": "2023-10-15 14:10",
        "id": "REF-0099",
        "groundedFromAnchor": "Capilla Sixtina",
        "computedScore": 83,
        "h3Index": "891e80505c7ffff"
      }
    },
    {
      "type": "Feature",
      "geometry": {
        "type": "Point",
        "coordinates": [
          12.449981326587482,
          41.90371142788957
        ]
      },
      "properties": {
        "name": "Jardines Vaticanos",
        "title": "Senderos Principales de los Jardines Vaticanos",
        "category": "naturaleza",
        "latitude": 41.90371142788957,
        "longitude": 12.449981326587482,
        "city": "Ciudad del Vaticano",
        "country": "Ciudad del Vaticano",
        "address": "Jardines del Vaticano, 00120 Citta del Vaticano",
        "date": "2023-10-15 16:00",
        "id": "REF-0100",
        "groundedFromAnchor": "Jardines Vaticanos",
        "computedScore": 94,
        "h3Index": "891e80505c3ffff"
      }
    },
    {
      "type": "Feature",
      "geometry": {
        "type": "Point",
        "coordinates": [
          12.453440003885326,
          41.90253889265846
        ]
      },
      "properties": {
        "name": "Basílica de San Pedro",
        "title": "Altar Papal y Cúpula de San Pedro",
        "category": "monumento",
        "latitude": 41.90253889265846,
        "longitude": 12.453440003885326,
        "city": "Ciudad del Vaticano",
        "country": "Ciudad del Vaticano",
        "address": "Piazza San Pietro, 00120 Città del Vaticano",
        "date": "2023-10-14 10:30",
        "id": "REF-0101",
        "groundedFromAnchor": "Basílica de San Pedro",
        "computedScore": 83,
        "h3Index": "891e80505c7ffff"
      }
    },
    {
      "type": "Feature",
      "geometry": {
        "type": "Point",
        "coordinates": [
          12.457501603094894,
          41.90197408196893
        ]
      },
      "properties": {
        "name": "Plaza de San Pedro",
        "title": "Columnata de Bernini y Obelisco Vaticano",
        "category": "monumento",
        "latitude": 41.90197408196893,
        "longitude": 12.457501603094894,
        "city": "Ciudad del Vaticano",
        "country": "Ciudad del Vaticano",
        "address": "Piazza San Pietro, 00120 Città del Vaticano",
        "date": "2023-10-14 11:15",
        "id": "REF-0102",
        "groundedFromAnchor": "Plaza de San Pedro",
        "computedScore": 83,
        "h3Index": "891e805051bffff"
      }
    },
    {
      "type": "Feature",
      "geometry": {
        "type": "Point",
        "coordinates": [
          12.453781058524529,
          41.906100117381456
        ]
      },
      "properties": {
        "name": "Museos Vaticanos",
        "title": "Cortile della Pigna y Galerías Pontificias",
        "category": "actividad",
        "latitude": 41.906100117381456,
        "longitude": 12.453781058524529,
        "city": "Ciudad del Vaticano",
        "country": "Ciudad del Vaticano",
        "address": "Viale Vaticano, 00120 Città del Vaticano",
        "date": "2023-10-14 14:20",
        "id": "REF-0103",
        "groundedFromAnchor": "Museos Vaticanos",
        "computedScore": 89,
        "h3Index": "891e805058bffff"
      }
    },
    {
      "type": "Feature",
      "geometry": {
        "type": "Point",
        "coordinates": [
          12.454486992660149,
          41.90262765312435
        ]
      },
      "properties": {
        "name": "Capilla Sixtina",
        "title": "Recinto de la Capilla Sixtina y Palacio Apostólico",
        "category": "monumento",
        "latitude": 41.90262765312435,
        "longitude": 12.454486992660149,
        "city": "Ciudad del Vaticano",
        "country": "Ciudad del Vaticano",
        "address": "Cortile del Belvedere, 00120 Città del Vaticano",
        "date": "2023-10-14 15:45",
        "id": "REF-0104",
        "groundedFromAnchor": "Capilla Sixtina",
        "computedScore": 81,
        "h3Index": "891e80505c7ffff"
      }
    },
    {
      "type": "Feature",
      "geometry": {
        "type": "Point",
        "coordinates": [
          12.449789489491781,
          41.903693656238545
        ]
      },
      "properties": {
        "name": "Jardines Vaticanos",
        "title": "Sendero de la Fuente de la Galera",
        "category": "naturaleza",
        "latitude": 41.903693656238545,
        "longitude": 12.449789489491781,
        "city": "Ciudad del Vaticano",
        "country": "Ciudad del Vaticano",
        "address": "Giardini Vaticani, 00120 Città del Vaticano",
        "date": "2023-10-14 16:50",
        "id": "REF-0105",
        "groundedFromAnchor": "Jardines Vaticanos",
        "computedScore": 95,
        "h3Index": "891e80505c3ffff"
      }
    },
    {
      "type": "Feature",
      "geometry": {
        "type": "Point",
        "coordinates": [
          12.453695804985879,
          41.90219764645674
        ]
      },
      "properties": {
        "name": "Basílica de San Pedro",
        "title": "Fachada Principal de la Basílica Papal de San Pedro",
        "category": "monumento",
        "latitude": 41.90219764645674,
        "longitude": 12.453695804985879,
        "city": "Ciudad del Vaticano",
        "country": "Ciudad del Vaticano",
        "address": "Piazza San Pietro, 00120 Città del Vaticano",
        "date": "2023-10-14 10:30",
        "id": "REF-0106",
        "groundedFromAnchor": "Basílica de San Pedro",
        "computedScore": 83,
        "h3Index": "891e80505c7ffff"
      }
    },
    {
      "type": "Feature",
      "geometry": {
        "type": "Point",
        "coordinates": [
          12.457495177981938,
          41.90228217090764
        ]
      },
      "properties": {
        "name": "Plaza de San Pedro",
        "title": "Colonada de Bernini y Obelisco Vaticano",
        "category": "monumento",
        "latitude": 41.90228217090764,
        "longitude": 12.457495177981938,
        "city": "Ciudad del Vaticano",
        "country": "Ciudad del Vaticano",
        "address": "Piazza San Pietro, 00120 Città del Vaticano",
        "date": "2023-10-14 11:15",
        "id": "REF-0107",
        "groundedFromAnchor": "Plaza de San Pedro",
        "computedScore": 82,
        "h3Index": "891e8050513ffff"
      }
    },
    {
      "type": "Feature",
      "geometry": {
        "type": "Point",
        "coordinates": [
          12.45348165744557,
          41.9064966123901
        ]
      },
      "properties": {
        "name": "Museos Vaticanos",
        "title": "Pabellón de Entrada a los Museos Vaticanos",
        "category": "actividad",
        "latitude": 41.9064966123901,
        "longitude": 12.45348165744557,
        "city": "Ciudad del Vaticano",
        "country": "Ciudad del Vaticano",
        "address": "Viale Vaticano, 00165 Città del Vaticano",
        "date": "2023-10-14 12:45",
        "id": "REF-0108",
        "groundedFromAnchor": "Museos Vaticanos",
        "computedScore": 89,
        "h3Index": "891e80505d7ffff"
      }
    },
    {
      "type": "Feature",
      "geometry": {
        "type": "Point",
        "coordinates": [
          12.454421566850542,
          41.903139580552036
        ]
      },
      "properties": {
        "name": "Capilla Sixtina",
        "title": "Fachada Externa de la Capilla Sixtina",
        "category": "monumento",
        "latitude": 41.903139580552036,
        "longitude": 12.454421566850542,
        "city": "Ciudad del Vaticano",
        "country": "Ciudad del Vaticano",
        "address": "Cortile del Belvedere, 00120 Città del Vaticano",
        "date": "2023-10-14 14:20",
        "id": "REF-0109",
        "groundedFromAnchor": "Capilla Sixtina",
        "computedScore": 83,
        "h3Index": "891e80505c7ffff"
      }
    },
    {
      "type": "Feature",
      "geometry": {
        "type": "Point",
        "coordinates": [
          12.44970522556654,
          41.90388725073864
        ]
      },
      "properties": {
        "name": "Jardines Vaticanos",
        "title": "Bosquete y Senderos Botánicos de los Jardines Vaticanos",
        "category": "naturaleza",
        "latitude": 41.90388725073864,
        "longitude": 12.44970522556654,
        "city": "Ciudad del Vaticano",
        "country": "Ciudad del Vaticano",
        "address": "Giardini Vaticani, 00120 Città del Vaticano",
        "date": "2023-10-14 16:00",
        "id": "REF-0110",
        "groundedFromAnchor": "Jardines Vaticanos",
        "computedScore": 96,
        "h3Index": "891e80505c3ffff"
      }
    }
  ]
}